******************************************************************************* Revised: Sep 11, 2020           Callisto / (Jupiter)                       504 SATELLITE PHYSICAL PROPERTIES:  Radius (km)             = 2403   +- 5     Density (g cm^-3)   = 1.851 +- .004  Mass (10^20 kg )        = 1076   +- 1     Geometric Albedo    =  0.20  SATELLITE ORBITAL DATA:  Semi-major axis, a (km) = 1883  (10^3)    Orbital period      = 16.689018 d  Eccentricity, e         = 0.007           Rotational period   = Synchronous  Inclination, i  (deg)   = 0.281*******************************************************************************  *******************************************************************************Ephemeris / WWW_USER Fri Jan 29 14:22:17 2021 Pasadena, USA      / Horizons*******************************************************************************Target body name: Callisto (504)                  {source: jup357_merged}Center body name: Solar System Barycenter (0)     {source: DE431mx}Center-site name: BODY CENTER*******************************************************************************Start time      : A.D. 2021-Jan-01 00:00:00.0000 TDBStop  time      : A.D. 2021-Jan-02 00:00:00.0000 TDBStep-size       : 1440 minutes*******************************************************************************Center geodetic : 0.00000000,0.00000000,0.0000000 {E-lon(deg),Lat(deg),Alt(km)}Center cylindric: 0.00000000,0.00000000,0.0000000 {E-lon(deg),Dxy(km),Dz(km)}Center radii    : (undefined)                                                  Output units    : KM-SOutput type     : GEOMETRIC cartesian statesOutput format   : 2 (position and velocity)Reference frame : Ecliptic of J2000.0*******************************************************************************            JDTDB,            Calendar Date (TDB),                      X,                      Y,                      Z,                     VX,                     VY,                     VZ,**************************************************************************************************************************************************************************************************$$SOE2459215.500000000, A.D. 2021-Jan-01 00:00:00.0000,  4.549252205599236E+08, -6.123177605969357E+08, -7.663153864715099E+06,  1.746503221003789E+01,  1.249417055050007E+01, -4.087821890321486E-02,2459216.500000000, A.D. 2021-Jan-02 00:00:00.0000,  4.563538016741522E+08, -6.111301949897287E+08, -7.664361082053959E+06,  1.545268676780097E+01,  1.487088164678965E+01,  6.951454816910285E-03,$$EOE**************************************************************************************************************************************************************************************************Coordinate system description:  Ecliptic at the standard reference epoch    Reference epoch: J2000.0    X-Y plane: adopted Earth orbital plane at the reference epoch               Note: obliquity of 84381.448 arcseconds (IAU76) wrt ICRF equator    X-axis   : ICRF    Z-axis   : perpendicular to the X-Y plane in the directional (+ or -) sense               of Earth's north pole at the reference epoch.  Symbol meaning:    JDTDB    Julian Day Number, Barycentric Dynamical Time      X      X-component of position vector (km)      Y      Y-component of position vector (km)      Z      Z-component of position vector (km)      VX     X-component of velocity vector (km/sec)                                 VY     Y-component of velocity vector (km/sec)                                 VZ     Z-component of velocity vector (km/sec)                           Geometric states/elements have no aberrations applied. Computations by ...     Solar System Dynamics Group, Horizons On-Line Ephemeris System     4800 Oak Grove Drive, Jet Propulsion Laboratory     Pasadena, CA  91109   USA     Information  : https://ssd.jpl.nasa.gov/     Documentation: https://ssd.jpl.nasa.gov/?horizons_doc     Connect      : https://ssd.jpl.nasa.gov/?horizons (browser)                    telnet ssd.jpl.nasa.gov 6775       (command-line)                    e-mail command interface available                    Script and CGI interfaces available     Author       : Jon.D.Giorgini@jpl.nasa.gov*******************************************************************************